{
    "links": {
        "self": "http://www.neowsapp.com/rest/v1/neo/3683808?api_key=iIulBulltgU6a56xZRHN4H3l9WmuAYTsLGpBGhQ2"
    },
    "id": "3683808",
    "neo_reference_id": "3683808",
    "name": "(2014 QP296)",
    "designation": "2014 QP296",
    "nasa_jpl_url": "http://ssd.jpl.nasa.gov/sbdb.cgi?sstr=3683808",
    "absolute_magnitude_h": 22.4,
    "estimated_diameter": {
        "kilometers": {
            "estimated_diameter_min": 0.0880146521,
            "estimated_diameter_max": 0.1968067451
        },
        "meters": {
            "estimated_diameter_min": 88.0146520901,
            "estimated_diameter_max": 196.8067450894
        },
        "miles": {
            "estimated_diameter_min": 0.0546897524,
            "estimated_diameter_max": 0.122290004
        },
        "feet": {
            "estimated_diameter_min": 288.7619911632,
            "estimated_diameter_max": 645.6914415591
        }
    },
    "is_potentially_hazardous_asteroid": false,
    "close_approach_data": [
        {
            "close_approach_date": "1997-08-30",
            "close_approach_date_full": "1997-Aug-30 02:06",
            "epoch_date_close_approach": 872906760000,
            "relative_velocity": {
                "kilometers_per_second": "18.4705954748",
                "kilometers_per_hour": "66494.1437092678",
                "miles_per_hour": "41316.8750175725"
            },
            "miss_distance": {
                "astronomical": "0.3925996656",
                "lunar": "152.7212699184",
                "kilometers": "58732073.736472272",
                "miles": "36494418.3511784736"
            },
            "orbiting_body": "Earth"
        },
        {
            "close_approach_date": "2014-08-30",
            "close_approach_date_full": "2014-Aug-30 14:30",
            "epoch_date_close_approach": 1409409000000,
            "relative_velocity": {
                "kilometers_per_second": "16.3161399525",
                "kilometers_per_hour": "58738.1038290727",
                "miles_per_hour": "36497.5734597924"
            },
            "miss_distance": {
                "astronomical": "0.2730985632",
                "lunar": "106.2353410848",
                "kilometers": "40854963.354780384",
                "miles": "25386097.0596979392"
            },
            "orbiting_body": "Earth"
        },
        {
            "close_approach_date": "2029-08-29",
            "close_approach_date_full": "2029-Aug-29 05:41",
            "epoch_date_close_approach": 1882676460000,
            "relative_velocity": {
                "kilometers_per_second": "20.0187362833",
                "kilometers_per_hour": "72067.4506199689",
                "miles_per_hour": "44779.911192169"
            },
            "miss_distance": {
                "astronomical": "0.4964406684",
                "lunar": "193.1154200076",
                "kilometers": "74266466.574016308",
                "miles": "46147042.4623007304"
            },
            "orbiting_body": "Earth"
        },
        {
            "close_approach_date": "2031-08-27",
            "close_approach_date_full": "2031-Aug-27 21:57",
            "epoch_date_close_approach": 1945634220000,
            "relative_velocity": {
                "kilometers_per_second": "16.0120008673",
                "kilometers_per_hour": "57643.2031221979",
                "miles_per_hour": "35817.2447400124"
            },
            "miss_distance": {
                "astronomical": "0.4217877813",
                "lunar": "164.0754469257",
                "kilometers": "63098553.674505831",
                "miles": "39207623.1716932278"
            },
            "orbiting_body": "Earth"
        }
    ],
    "orbital_data": {
        "orbit_id": "7",
        "orbit_determination_date": "2017-04-06 08:39:08",
        "first_observation_date": "2014-08-20",
        "last_observation_date": "2014-10-02",
        "data_arc_in_days": 43,
        "observations_used": 26,
        "orbit_uncertainty": "7",
        "minimum_orbit_intersection": ".272195",
        "jupiter_tisserand_invariant": "4.065",
        "epoch_osculation": "2459000.5",
        "eccentricity": ".2643583157362741",
        "semi_major_axis": "1.656280966246629",
        "inclination": "31.97837044014396",
        "ascending_node_longitude": "331.5654605612207",
        "orbital_period": "778.5731875279675",
        "perihelion_distance": "1.218429319623621",
        "perihelion_argument": "43.71577981970408",
        "aphelion_distance": "2.094132612869636",
        "perihelion_time": "2459284.113063804298",
        "mean_anomaly": "228.8617786932461",
        "mean_motion": ".4623842764776282",
        "equinox": "J2000",
        "orbit_class": {
            "orbit_class_type": "AMO",
            "orbit_class_description": "Near-Earth asteroid orbits similar to that of 1221 Amor",
            "orbit_class_range": "1.017 AU < q (perihelion) < 1.3 AU"
        }
    },
    "is_sentry_object": false
}